OBJECT_NAME,OBJECT_ID,EPOCH,MEAN_MOTION,ECCENTRICITY,INCLINATION,RA_OF_ASC_NODE,ARG_OF_PERICENTER,MEAN_ANOMALY,EPHEMERIS_TYPE,CLASSIFICATION_TYPE,NORAD_CAT_ID,ELEMENT_SET_NO,REV_AT_EPOCH,BSTAR,MEAN_MOTION_DOT,MEAN_MOTION_DDOT
ONEWEB-0572,2023-004M,2026-06-30T12:06:22.005504,13.17649016,.00020143,87.9133,3.2155,93.0027,267.1336,0,U,55151,999,16923,.8862838E-5,.16E-6,0
ONEWEB-0573,2023-004N,2026-06-30T11:15:41.736384,13.18687009,.00026325,87.9172,332.8263,107.2835,252.8586,0,U,55152,999,17144,.3700697E-4,.28E-6,0
ONEWEB-0588,2023-004P,2026-06-30T11:05:59.840160,13.18686052,.00023329,87.9171,332.8276,90.3626,269.7773,0,U,55153,999,17144,.17446522E-3,.82E-6,0
ONEWEB-0598,2023-004Q,2026-06-30T12:17:33.344736,13.11418149,.00021769,87.8881,18.4152,106.8285,253.3082,0,U,55154,999,16764,-.81062116E-3,-.275E-5,0
ONEWEB-0599,2023-004R,2026-06-30T11:10:28.766208,13.17649401,.00017158,87.9131,3.2218,96.1709,263.9618,0,U,55155,999,16923,.10835891E-3,.55E-6,0
ONEWEB-0614,2023-004S,2026-06-30T01:11:01.098528,13.11419033,.00019073,87.8878,18.5162,81.2637,278.8707,0,U,55156,999,16752,-.93673516E-3,-.319E-5,0
ONEWEB-0616,2023-004T,2026-06-30T12:11:13.869024,13.17649873,.00010825,87.9134,3.2174,112.1091,248.0155,0,U,55157,999,16945,.56847672E-4,.35E-6,0
ONEWEB-0617,2023-004U,2026-06-30T11:53:08.378304,13.11416132,.00021486,87.8882,18.4190,79.9678,280.1693,0,U,55158,999,16760,-.13950361E-2,-.482E-5,0
ONEWEB-0618,2023-004V,2026-06-30T11:35:52.546848,15.13248866,.00097395,86.9090,172.2356,236.7080,123.3228,0,U,55159,999,18427,.37112752E-3,.6633E-4,0
ONEWEB-0619,2023-004W,2026-06-30T11:08:03.230592,13.17649727,.00016591,87.9142,3.2080,77.4833,282.6484,0,U,55160,999,16934,.14021243E-3,.67E-6,0
ONEWEB-0620,2023-004X,2026-06-30T11:45:48.542688,13.11414557,.00020364,87.8875,18.4278,92.9874,267.1487,0,U,55161,999,16757,-.11864809E-2,-.408E-5,0
ONEWEB-0621,2023-004Y,2026-06-30T10:35:00.865536,13.11418286,.00018848,87.8888,18.4278,80.6380,279.4961,0,U,55162,999,16754,.82101559E-4,.42E-6,0
ONEWEB-0622,2023-004Z,2026-06-30T10:42:20.893824,13.11418048,.00024911,87.8890,18.4293,79.6630,280.4779,0,U,55163,999,16753,.69753007E-3,.26E-5,0
ONEWEB-0623,2023-004AA,2026-06-30T11:00:44.436960,13.17650059,.00021875,87.9128,3.2376,69.7342,290.4024,0,U,55164,999,16933,.1605835E-5,.14E-6,0
ONEWEB-0624,2023-004AB,2026-06-30T10:55:34.502880,13.12929171,.00018504,87.8950,347.9435,90.3508,269.7833,0,U,55165,999,16981,.973174E-3,.365E-5,0
ONEWEB-0625,2023-004AC,2026-06-30T10:46:10.983936,13.17650031,.00016974,87.9134,3.2356,90.4798,269.6528,0,U,55166,999,16932,.98304108E-4,.51E-6,0
ONEWEB-0626,2023-004AD,2026-06-30T10:31:34.084416,13.17651140,.00021196,87.9133,3.2368,100.3438,259.7933,0,U,55167,999,16932,-.14709232E-2,-.558E-5,0
ONEWEB-0627,2023-004AE,2026-06-30T12:03:55.407168,13.17647653,.00020353,87.9133,3.2247,76.6644,283.4714,0,U,55168,999,16933,.17802518E-4,.2E-6,0
ONEWEB-0628,2023-004AF,2026-06-30T10:35:52.986336,13.12443079,.00019779,87.8953,348.0168,72.5157,287.6188,0,U,55169,999,16977,.10040789E-2,.374E-5,0
ONEWEB-0629,2023-004AG,2026-06-30T11:28:42.333600,13.17648191,.00016547,87.9130,3.2258,81.1848,278.9471,0,U,55170,999,16933,.67738049E-4,.39E-6,0
ONEWEB-0631,2023-004AH,2026-06-30T10:56:17.125728,13.18686323,.00023792,87.9181,332.7962,96.5784,263.5619,0,U,55171,999,17142,.1986392E-3,.91E-6,0
ONEWEB-0709,2023-004AJ,2026-06-30T11:31:10.106112,13.11414853,.0002299,87.8877,18.4321,108.9926,251.1451,0,U,55172,999,16761,-.2374981E-3,-.71E-6,0
ONEWEB-0710,2023-004AK,2026-06-30T11:49:20.485344,13.17650495,.00019694,87.9131,3.2181,86.0756,274.0600,0,U,55173,999,16933,.55725092E-4,.35E-6,0
ONEWEB-0711,2023-004AL,2026-06-30T10:49:40.528128,13.11417909,.00023334,87.8881,18.4256,73.4466,286.6919,0,U,55174,999,16757,.12622336E-2,.46E-5,0
ONEWEB-0713,2023-004AM,2026-06-30T11:16:31.865664,13.11415804,.00020863,87.8880,18.4235,79.5646,280.5717,0,U,55175,999,16756,.11913771E-2,.435E-5,0
ONEWEB-0715,2023-004AN,2026-06-30T11:09:12.260736,13.11415562,.00023888,87.8880,18.4252,99.3680,260.7718,0,U,55176,999,16760,.13228102E-2,.482E-5,0
ONEWEB-0716,2023-004AP,2026-06-30T11:39:37.194624,13.17650143,.00016233,87.9130,3.2221,93.0484,267.0834,0,U,55177,999,16933,.12383556E-4,.18E-6,0
ONEWEB-0717,2023-004AQ,2026-06-30T11:15:20.672928,13.17649098,.00023585,87.9142,3.2144,82.0003,278.1396,0,U,55178,999,16938,.72131075E-4,.41E-6,0
ONEWEB-0719,2023-004AR,2026-06-30T11:29:55.386528,13.17649581,.00016696,87.9140,3.1928,88.0569,272.0754,0,U,55179,999,16933,.90777035E-4,.48E-6,0
ONEWEB-0530,2023-029A,2026-06-30T06:31:07.561920,13.20772601,.00021472,87.9186,271.8605,87.1666,272.9713,0,U,55796,999,16287,.46854572E-3,.204E-5,0
