ONEWEB-0572             
1 55151U 23004M   26181.50442136  .00000016  00000+0  88628-5 0  9992
2 55151  87.9133   3.2155 0002014  93.0027 267.1336 13.17649016169231
ONEWEB-0573             
1 55152U 23004N   26181.46923306  .00000028  00000+0  37007-4 0  9998
2 55152  87.9172 332.8263 0002632 107.2835 252.8586 13.18687009171446
ONEWEB-0588             
1 55153U 23004P   26181.46249815  .00000082  00000+0  17447-3 0  9990
2 55153  87.9171 332.8276 0002332  90.3626 269.7773 13.18686052171449
ONEWEB-0598             
1 55154U 23004Q   26181.51219149 -.00000275  00000+0 -81062-3 0  9994
2 55154  87.8881  18.4152 0002176 106.8285 253.3082 13.11418149167649
ONEWEB-0599             
1 55155U 23004R   26181.46561072  .00000055  00000+0  10836-3 0  9999
2 55155  87.9131   3.2218 0001715  96.1709 263.9618 13.17649401169236
ONEWEB-0614             
1 55156U 23004S   26181.04931827 -.00000319  00000+0 -93674-3 0  9999
2 55156  87.8878  18.5162 0001907  81.2637 278.8707 13.11419033167523
ONEWEB-0616             
1 55157U 23004T   26181.50779941  .00000035  00000+0  56848-4 0  9994
2 55157  87.9134   3.2174 0001082 112.1091 248.0155 13.17649873169459
ONEWEB-0617             
1 55158U 23004U   26181.49523586 -.00000482  00000+0 -13950-2 0  9998
2 55158  87.8882  18.4190 0002148  79.9678 280.1693 13.11416132167603
ONEWEB-0618             
1 55159U 23004V   26181.48324707  .00006633  00000+0  37113-3 0  9992
2 55159  86.9090 172.2356 0009739 236.7080 123.3228 15.13248866184276
ONEWEB-0619             
1 55160U 23004W   26181.46392628  .00000067  00000+0  14021-3 0  9997
2 55160  87.9142   3.2080 0001659  77.4833 282.6484 13.17649727169340
ONEWEB-0620             
1 55161U 23004X   26181.49014517 -.00000408  00000+0 -11865-2 0  9992
2 55161  87.8875  18.4278 0002036  92.9874 267.1487 13.11414557167576
ONEWEB-0621             
1 55162U 23004Y   26181.44098224  .00000042  00000+0  82102-4 0  9991
2 55162  87.8888  18.4278 0001884  80.6380 279.4961 13.11418286167540
ONEWEB-0622             
1 55163U 23004Z   26181.44607516  .00000260  00000+0  69753-3 0  9990
2 55163  87.8890  18.4293 0002491  79.6630 280.4779 13.11418048167536
ONEWEB-0623             
1 55164U 23004AA  26181.45884765  .00000014  00000+0  16058-5 0  9994
2 55164  87.9128   3.2376 0002187  69.7342 290.4024 13.17650059169338
ONEWEB-0624             
1 55165U 23004AB  26181.45526045  .00000365  00000+0  97317-3 0  9993
2 55165  87.8950 347.9435 0001850  90.3508 269.7833 13.12929171169814
ONEWEB-0625             
1 55166U 23004AC  26181.44873824  .00000051  00000+0  98304-4 0  9993
2 55166  87.9134   3.2356 0001697  90.4798 269.6528 13.17650031169322
ONEWEB-0626             
1 55167U 23004AD  26181.43858894 -.00000558  00000+0 -14709-2 0  9992
2 55167  87.9133   3.2368 0002119 100.3438 259.7933 13.17651140169329
ONEWEB-0627             
1 55168U 23004AE  26181.50272462  .00000020  00000+0  17803-4 0  9994
2 55168  87.9133   3.2247 0002035  76.6644 283.4714 13.17647653169333
ONEWEB-0628             
1 55169U 23004AF  26181.44158549  .00000374  00000+0  10041-2 0  9994
2 55169  87.8953 348.0168 0001977  72.5157 287.6188 13.12443079169773
ONEWEB-0629             
1 55170U 23004AG  26181.47826775  .00000039  00000+0  67738-4 0  9997
2 55170  87.9130   3.2258 0001654  81.1848 278.9471 13.17648191169335
ONEWEB-0631             
1 55171U 23004AH  26181.45575377  .00000091  00000+0  19864-3 0  9999
2 55171  87.9181 332.7962 0002379  96.5784 263.5619 13.18686323171425
ONEWEB-0709             
1 55172U 23004AJ  26181.47997808 -.00000071  00000+0 -23750-3 0  9998
2 55172  87.8877  18.4321 0002299 108.9926 251.1451 13.11414853167614
ONEWEB-0710             
1 55173U 23004AK  26181.49259821  .00000035  00000+0  55725-4 0  9993
2 55173  87.9131   3.2181 0001969  86.0756 274.0600 13.17650495169336
ONEWEB-0711             
1 55174U 23004AL  26181.45116352  .00000460  00000+0  12622-2 0  9990
2 55174  87.8881  18.4256 0002333  73.4466 286.6919 13.11417909167574
ONEWEB-0713             
1 55175U 23004AM  26181.46981326  .00000435  00000+0  11914-2 0  9998
2 55175  87.8880  18.4235 0002086  79.5646 280.5717 13.11415804167563
ONEWEB-0715             
1 55176U 23004AN  26181.46472524  .00000482  00000+0  13228-2 0  9996
2 55176  87.8880  18.4252 0002388  99.3680 260.7718 13.11415562167603
ONEWEB-0716             
1 55177U 23004AP  26181.48584716  .00000018  00000+0  12384-4 0  9995
2 55177  87.9130   3.2221 0001623  93.0484 267.0834 13.17650143169338
ONEWEB-0717             
1 55178U 23004AQ  26181.46898927  .00000041  00000+0  72131-4 0  9998
2 55178  87.9142   3.2144 0002358  82.0003 278.1396 13.17649098169385
ONEWEB-0719             
1 55179U 23004AR  26181.47911327  .00000048  00000+0  90777-4 0  9993
2 55179  87.9140   3.1928 0001669  88.0569 272.0754 13.17649581169333
ONEWEB-0530             
1 55796U 23029A   26181.27161530  .00000204  00000+0  46855-3 0  9997
2 55796  87.9186 271.8605 0002147  87.1666 272.9713 13.20772601162874
